0 FENGYUN 1C DEB
1 37407U 99025EFZ 13280.61214650  .00057818  00000-0  50837-2 0  1159
2 37407 097.5384 055.1018 0107529 224.1095 138.3468 14.91902168281157
0 FENGYUN 1C DEB
1 37407U 99025EFZ 13283.63056587  .00063510  00000-0  55196-2 0  1167
2 37407 097.5368 057.9892 0107542 213.8895 152.3674 14.92313215281602
0 FENGYUN 1C DEB
1 37407U 99025EFZ 13286.17681706  .00085430  00000-0  73278-2 0  1184
2 37407 097.5368 060.4256 0106229 206.8311 152.7149 14.92803929281989
0 FENGYUN 1C DEB
1 37407U 99025EFZ 13292.13988553  .00121595  00000-0  10084-1 0  1196
2 37407 097.5272 066.1644 0103003 187.8308 172.1310 14.94155432282874
